[
    {
        "Altitude(m)": 703071.2086397535,
        "Argument of Periapsis(deg)": 0.011390121186627068,
        "Eccentricity": 0.0,
        "Inclination(deg)": 45.0,
        "Latitude(deg)": 3.364743784308088,
        "Longitude(deg)": -74.12639400423993,
        "Mean Anomaly(deg)": -184.83038335251916,
        "RAAN(deg)": 209.98924805854182,
        "Satellite Name": "Constellation 1 934",
        "Satellite Number": 934,
        "Semi-Major Axis(m)": 7083131.272910544,
        "Time(s)": 190
    },
    {
        "Altitude(m)": 703075.2053344307,
        "Argument of Periapsis(deg)": 0.011450069192872472,
        "Eccentricity": 0.0,
        "Inclination(deg)": 45.0,
        "Latitude(deg)": 3.3215976753390133,
        "Longitude(deg)": -74.08749510490853,
        "Mean Anomaly(deg)": -184.76968221226926,
        "RAAN(deg)": 209.9891914693762,
        "Satellite Name": "Constellation 1 934",
        "Satellite Number": 934,
        "Semi-Major Axis(m)": 7083131.272910544,
        "Time(s)": 191
    },
    {
        "Altitude(m)": 703079.2228844217,
        "Argument of Periapsis(deg)": 0.01151001719911788,
        "Eccentricity": 0.0,
        "Inclination(deg)": 45.0,
        "Latitude(deg)": 3.278449709803583,
        "Longitude(deg)": -74.04859999706959,
        "Mean Anomaly(deg)": -184.70898107201938,
        "RAAN(deg)": 209.98913488021066,
        "Satellite Name": "Constellation 1 934",
        "Satellite Number": 934,
        "Semi-Major Axis(m)": 7083131.272910544,
        "Time(s)": 192
    },
    {
        "Altitude(m)": 703083.2612904774,
        "Argument of Periapsis(deg)": 0.011569965205363285,
        "Eccentricity": 0.0,
        "Inclination(deg)": 45.0,
        "Latitude(deg)": 3.2352999129273874,
        "Longitude(deg)": -74.00970880017823,
        "Mean Anomaly(deg)": -184.64827993176948,
        "RAAN(deg)": 209.9890782910451,
        "Satellite Name": "Constellation 1 934",
        "Satellite Number": 934,
        "Semi-Major Axis(m)": 7083131.272910544,
        "Time(s)": 193
    },
    {
        "Altitude(m)": 703087.3205532405,
        "Argument of Periapsis(deg)": 0.01162991321160869,
        "Eccentricity": 0.0,
        "Inclination(deg)": 45.0,
        "Latitude(deg)": 3.1921483099289936,
        "Longitude(deg)": -73.97082112940708,
        "Mean Anomaly(deg)": -184.58757879151958,
        "RAAN(deg)": 209.98902170187952,
        "Satellite Name": "Constellation 1 934",
        "Satellite Number": 934,
        "Semi-Major Axis(m)": 7083131.272910544,
        "Time(s)": 194
    },
    {
        "Altitude(m)": 703091.4006732736,
        "Argument of Periapsis(deg)": 0.011689861217854095,
        "Eccentricity": 0.0,
        "Inclination(deg)": 45.0,
        "Latitude(deg)": 3.1489949260194594,
        "Longitude(deg)": -73.93193710422815,
        "Mean Anomaly(deg)": -184.52687765126964,
        "RAAN(deg)": 209.98896511271397,
        "Satellite Name": "Constellation 1 934",
        "Satellite Number": 934,
        "Semi-Major Axis(m)": 7083131.272910544,
        "Time(s)": 195
    },
    {
        "Altitude(m)": 703095.5016510361,
        "Argument of Periapsis(deg)": 0.0117498092240995,
        "Eccentricity": 0.0,
        "Inclination(deg)": 45.0,
        "Latitude(deg)": 3.105839786403076,
        "Longitude(deg)": -73.89305667602491,
        "Mean Anomaly(deg)": -184.46617651101977,
        "RAAN(deg)": 209.98890852354836,
        "Satellite Name": "Constellation 1 934",
        "Satellite Number": 934,
        "Semi-Major Axis(m)": 7083131.272910544,
        "Time(s)": 196
    },
    {
        "Altitude(m)": 703099.6234868997,
        "Argument of Periapsis(deg)": 0.011809757230344905,
        "Eccentricity": 0.0,
        "Inclination(deg)": 45.0,
        "Latitude(deg)": 3.0626829162770393,
        "Longitude(deg)": -73.85417979618892,
        "Mean Anomaly(deg)": -184.40547537076986,
        "RAAN(deg)": 209.9888519343828,
        "Satellite Name": "Constellation 1 934",
        "Satellite Number": 934,
        "Semi-Major Axis(m)": 7083131.272910544,
        "Time(s)": 197
    },
    {
        "Altitude(m)": 703103.7661811472,
        "Argument of Periapsis(deg)": 0.011869705236590313,
        "Eccentricity": 0.0,
        "Inclination(deg)": 45.0,
        "Latitude(deg)": 3.0195243408316657,
        "Longitude(deg)": -73.81530641611988,
        "Mean Anomaly(deg)": -184.34477423052,
        "RAAN(deg)": 209.98879534521726,
        "Satellite Name": "Constellation 1 934",
        "Satellite Number": 934,
        "Semi-Major Axis(m)": 7083131.272910544,
        "Time(s)": 198
    },
    {
        "Altitude(m)": 703107.9297339611,
        "Argument of Periapsis(deg)": 0.011929653242835719,
        "Eccentricity": 0.0,
        "Inclination(deg)": 45.0,
        "Latitude(deg)": 2.9763640852505633,
        "Longitude(deg)": -73.77643648722558,
        "Mean Anomaly(deg)": -184.28407309027008,
        "RAAN(deg)": 209.98873875605167,
        "Satellite Name": "Constellation 1 934",
        "Satellite Number": 934,
        "Semi-Major Axis(m)": 7083131.272910544,
        "Time(s)": 199
    }
]